{
  "type": "FeatureCollection",
  "features": [
    {
      "type": "Feature",
      "properties": {
        "norad_id": 30153,
        "name": "FENGYUN 1C DEB",
        "group": "fengyun-1c-debris",
        "lat": -56.499000965974076,
        "lon": 7.913225282071985,
        "alt_km": 846.8721717785957,
        "timestamp": "2025-12-25T22:42:17.285549+00:00",
        "meta_object_name": "FENGYUN 1C DEB",
        "meta_object_id": "1999-025TJ",
        "meta_epoch": "2025-12-25T13:07:42.775104",
        "meta_mean_motion": 13.78805876,
        "meta_eccentricity": 0.0200421,
        "meta_inclination": 100.468,
        "meta_ra_of_asc_node": 351.2543,
        "meta_arg_of_pericenter": 333.1228,
        "meta_mean_anomaly": 150.5263,
        "meta_ephemeris_type": 0,
        "meta_classification_type": "U",
        "meta_norad_cat_id": 30153,
        "meta_element_set_no": 999,
        "meta_rev_at_epoch": 94951,
        "meta_bstar": 0.0012457,
        "meta_mean_motion_dot": 1.419e-05,
        "meta_mean_motion_ddot": 0,
        "tle_line1": "1 30153U 99025TJ  25359.54702286  .00001419  00000+0  12457-2 0  9990",
        "tle_line2": "2 30153 100.4680 351.2543 0200421 333.1228 150.5263 13.78805876949510"
      },
      "geometry": {
        "type": "Point",
        "coordinates": [
          7.913225282071985,
          -56.499000965974076
        ]
      }
    },
    {
      "type": "Feature",
      "properties": {
        "norad_id": 30154,
        "name": "FENGYUN 1C DEB",
        "group": "fengyun-1c-debris",
        "lat": 5.796565560220009,
        "lon": -138.68168737413112,
        "alt_km": 813.1171401635738,
        "timestamp": "2025-12-25T22:42:17.285559+00:00",
        "meta_object_name": "FENGYUN 1C DEB",
        "meta_object_id": "1999-025TK",
        "meta_epoch": "2025-12-25T01:22:36.190848",
        "meta_mean_motion": 13.86034557,
        "meta_eccentricity": 0.01829961,
        "meta_inclination": 98.4485,
        "meta_ra_of_asc_node": 39.6514,
        "meta_arg_of_pericenter": 165.2487,
        "meta_mean_anomaly": 256.5877,
        "meta_ephemeris_type": 0,
        "meta_classification_type": "U",
        "meta_norad_cat_id": 30154,
        "meta_element_set_no": 999,
        "meta_rev_at_epoch": 95155,
        "meta_bstar": 0.0015704438,
        "meta_mean_motion_dot": 2.024e-05,
        "meta_mean_motion_ddot": 0,
        "tle_line1": "1 30154U 99025TK  25359.05736332  .00002024  00000+0  15704-2 0  9997",
        "tle_line2": "2 30154  98.4485  39.6514 0182996 165.2487 256.5877 13.86034557951556"
      },
      "geometry": {
        "type": "Point",
        "coordinates": [
          -138.68168737413112,
          5.796565560220009
        ]
      }
    },
    {
      "type": "Feature",
      "properties": {
        "norad_id": 30155,
        "name": "FENGYUN 1C DEB",
        "group": "fengyun-1c-debris",
        "lat": 6.477456624296508,
        "lon": -105.13911614737887,
        "alt_km": 1114.4133539077138,
        "timestamp": "2025-12-25T22:42:17.285569+00:00",
        "meta_object_name": "FENGYUN 1C DEB",
        "meta_object_id": "1999-025TL",
        "meta_epoch": "2025-12-25T11:21:26.469792",
        "meta_mean_motion": 13.73855351,
        "meta_eccentricity": 0.0242765,
        "meta_inclination": 99.7512,
        "meta_ra_of_asc_node": 73.2598,
        "meta_arg_of_pericenter": 310.6425,
        "meta_mean_anomaly": 47.3838,
        "meta_ephemeris_type": 0,
        "meta_classification_type": "U",
        "meta_norad_cat_id": 30155,
        "meta_element_set_no": 999,
        "meta_rev_at_epoch": 94039,
        "meta_bstar": 0.0019594,
        "meta_mean_motion_dot": 2.222e-05,
        "meta_mean_motion_ddot": 0,
        "tle_line1": "1 30155U 99025TL  25359.47322303  .00002222  00000+0  19594-2 0  9994",
        "tle_line2": "2 30155  99.7512  73.2598 0242765 310.6425  47.3838 13.73855351940399"
      },
      "geometry": {
        "type": "Point",
        "coordinates": [
          -105.13911614737887,
          6.477456624296508
        ]
      }
    },
    {
      "type": "Feature",
      "properties": {
        "norad_id": 30156,
        "name": "FENGYUN 1C DEB",
        "group": "fengyun-1c-debris",
        "lat": 40.29509895705603,
        "lon": -41.435539441615205,
        "alt_km": 1102.400461762124,
        "timestamp": "2025-12-25T22:42:17.285579+00:00",
        "meta_object_name": "FENGYUN 1C DEB",
        "meta_object_id": "1999-025TM",
        "meta_epoch": "2025-12-25T12:40:23.892384",
        "meta_mean_motion": 13.80847871,
        "meta_eccentricity": 0.0198465,
        "meta_inclination": 98.9193,
        "meta_ra_of_asc_node": 325.8215,
        "meta_arg_of_pericenter": 228.406,
        "meta_mean_anomaly": 255.639,
        "meta_ephemeris_type": 0,
        "meta_classification_type": "U",
        "meta_norad_cat_id": 30156,
        "meta_element_set_no": 999,
        "meta_rev_at_epoch": 94867,
        "meta_bstar": 0.0010826,
        "meta_mean_motion_dot": 1.282e-05,
        "meta_mean_motion_ddot": 0,
        "tle_line1": "1 30156U 99025TM  25359.52805431  .00001282  00000+0  10826-2 0  9993",
        "tle_line2": "2 30156  98.9193 325.8215 0198465 228.4060 255.6390 13.80847871948678"
      },
      "geometry": {
        "type": "Point",
        "coordinates": [
          -41.435539441615205,
          40.29509895705603
        ]
      }
    },
    {
      "type": "Feature",
      "properties": {
        "norad_id": 30157,
        "name": "FENGYUN 1C DEB",
        "group": "fengyun-1c-debris",
        "lat": 45.876624517374054,
        "lon": -73.57504562563028,
        "alt_km": 712.619713217583,
        "timestamp": "2025-12-25T22:42:17.285589+00:00",
        "meta_object_name": "FENGYUN 1C DEB",
        "meta_object_id": "1999-025TN",
        "meta_epoch": "2025-12-24T06:30:03.653568",
        "meta_mean_motion": 14.45252792,
        "meta_eccentricity": 0.00369606,
        "meta_inclination": 98.7145,
        "meta_ra_of_asc_node": 95.607,
        "meta_arg_of_pericenter": 159.967,
        "meta_mean_anomaly": 262.7951,
        "meta_ephemeris_type": 0,
        "meta_classification_type": "U",
        "meta_norad_cat_id": 30157,
        "meta_element_set_no": 999,
        "meta_rev_at_epoch": 98239,
        "meta_bstar": 0.0021716886,
        "meta_mean_motion_dot": 7.642e-05,
        "meta_mean_motion_ddot": 0,
        "tle_line1": "1 30157U 99025TN  25358.27087562  .00007642  00000+0  21717-2 0  9999",
        "tle_line2": "2 30157  98.7145  95.6070 0036960 159.9670 262.7951 14.45252792982394"
      },
      "geometry": {
        "type": "Point",
        "coordinates": [
          -73.57504562563028,
          45.876624517374054
        ]
      }
    },
    {
      "type": "Feature",
      "properties": {
        "norad_id": 30160,
        "name": "FENGYUN 1C DEB",
        "group": "fengyun-1c-debris",
        "lat": 4.316885502420203,
        "lon": -53.69960248081264,
        "alt_km": 1091.9477579841505,
        "timestamp": "2025-12-25T22:42:17.285600+00:00",
        "meta_object_name": "FENGYUN 1C DEB",
        "meta_object_id": "1999-025TR",
        "meta_epoch": "2025-12-25T14:34:54.765120",
        "meta_mean_motion": 13.42912212,
        "meta_eccentricity": 0.0343517,
        "meta_inclination": 98.8876,
        "meta_ra_of_asc_node": 306.6781,
        "meta_arg_of_pericenter": 95.3564,
        "meta_mean_anomaly": 77.6583,
        "meta_ephemeris_type": 0,
        "meta_classification_type": "U",
        "meta_norad_cat_id": 30160,
        "meta_element_set_no": 999,
        "meta_rev_at_epoch": 92586,
        "meta_bstar": 0.0012975,
        "meta_mean_motion_dot": 1.015e-05,
        "meta_mean_motion_ddot": 0,
        "tle_line1": "1 30160U 99025TR  25359.60757830  .00001015  00000+0  12975-2 0  9997",
        "tle_line2": "2 30160  98.8876 306.6781 0343517  95.3564  77.6583 13.42912212925867"
      },
      "geometry": {
        "type": "Point",
        "coordinates": [
          -53.69960248081264,
          4.316885502420203
        ]
      }
    },
    {
      "type": "Feature",
      "properties": {
        "norad_id": 30161,
        "name": "FENGYUN 1C DEB",
        "group": "fengyun-1c-debris",
        "lat": -69.07710516191462,
        "lon": 139.0349830532561,
        "alt_km": 859.0463436278123,
        "timestamp": "2025-12-25T22:42:17.285610+00:00",
        "meta_object_name": "FENGYUN 1C DEB",
        "meta_object_id": "1999-025TS",
        "meta_epoch": "2025-12-25T13:12:02.179872",
        "meta_mean_motion": 13.49753719,
        "meta_eccentricity": 0.0327634,
        "meta_inclination": 100.5069,
        "meta_ra_of_asc_node": 347.6551,
        "meta_arg_of_pericenter": 226.9173,
        "meta_mean_anomaly": 259.9584,
        "meta_ephemeris_type": 0,
        "meta_classification_type": "U",
        "meta_norad_cat_id": 30161,
        "meta_element_set_no": 999,
        "meta_rev_at_epoch": 92732,
        "meta_bstar": 0.0014194,
        "meta_mean_motion_dot": 1.204e-05,
        "meta_mean_motion_ddot": 0,
        "tle_line1": "1 30161U 99025TS  25359.55002523  .00001204  00000+0  14194-2 0  9999",
        "tle_line2": "2 30161 100.5069 347.6551 0327634 226.9173 259.9584 13.49753719927324"
      },
      "geometry": {
        "type": "Point",
        "coordinates": [
          139.0349830532561,
          -69.07710516191462
        ]
      }
    }
  ]
}